CCSDS_OMM_VERS = 2.0
CREATION_DATE  = 
ORIGINATOR     = 

OBJECT_NAME    = ATLAS CENTAUR 2
OBJECT_ID      = 1963-047A
CENTER_NAME    = EARTH
REF_FRAME      = TEME
TIME_SYSTEM    = UTC
MEAN_ELEMENT_THEORY = SGP/SGP4

EPOCH          = 2026-03-15T09:57:30.740832
MEAN_MOTION    = 14.12090139
ECCENTRICITY   = .05475888
INCLINATION    = 30.3520
RA_OF_ASC_NODE = 163.6461
ARG_OF_PERICENTER = 130.7356
MEAN_ANOMALY   = 234.2120

EPHEMERIS_TYPE = 0
CLASSIFICATION_TYPE = U
NORAD_CAT_ID   = 694
ELEMENT_SET_NO = 999
REV_AT_EPOCH   = 13243
BSTAR          = .24557084E-3
MEAN_MOTION_DOT = .2099E-4
MEAN_MOTION_DDOT = 0

CCSDS_OMM_VERS = 2.0
CREATION_DATE  = 
ORIGINATOR     = 

OBJECT_NAME    = THOR AGENA D R/B
OBJECT_ID      = 1964-002A
CENTER_NAME    = EARTH
REF_FRAME      = TEME
TIME_SYSTEM    = UTC
MEAN_ELEMENT_THEORY = SGP/SGP4

EPOCH          = 2026-03-15T12:32:38.646528
MEAN_MOTION    = 14.34023737
ECCENTRICITY   = .00320463
INCLINATION    = 99.1222
RA_OF_ASC_NODE = 88.1781
ARG_OF_PERICENTER = 240.6423
MEAN_ANOMALY   = 119.1558

EPHEMERIS_TYPE = 0
CLASSIFICATION_TYPE = U
NORAD_CAT_ID   = 733
ELEMENT_SET_NO = 999
REV_AT_EPOCH   = 23913
BSTAR          = .91745408E-4
MEAN_MOTION_DOT = .209E-5
MEAN_MOTION_DDOT = 0

CCSDS_OMM_VERS = 2.0
CREATION_DATE  = 
ORIGINATOR     = 

OBJECT_NAME    = SL-3 R/B
OBJECT_ID      = 1964-053B
CENTER_NAME    = EARTH
REF_FRAME      = TEME
TIME_SYSTEM    = UTC
MEAN_ELEMENT_THEORY = SGP/SGP4

EPOCH          = 2026-03-15T15:29:45.250368
MEAN_MOTION    = 14.61372936
ECCENTRICITY   = .00799572
INCLINATION    = 65.0775
RA_OF_ASC_NODE = 313.7762
ARG_OF_PERICENTER = 290.3433
MEAN_ANOMALY   = 68.9089

EPHEMERIS_TYPE = 0
CLASSIFICATION_TYPE = U
NORAD_CAT_ID   = 877
ELEMENT_SET_NO = 999
REV_AT_EPOCH   = 26766
BSTAR          = .58142354E-4
MEAN_MOTION_DOT = .175E-5
MEAN_MOTION_DDOT = 0

CCSDS_OMM_VERS = 2.0
CREATION_DATE  = 
ORIGINATOR     = 

OBJECT_NAME    = SL-8 R/B
OBJECT_ID      = 1967-045B
CENTER_NAME    = EARTH
REF_FRAME      = TEME
TIME_SYSTEM    = UTC
MEAN_ELEMENT_THEORY = SGP/SGP4

EPOCH          = 2026-03-15T15:57:18.041760
MEAN_MOTION    = 14.45628257
ECCENTRICITY   = .00644476
INCLINATION    = 74.0137
RA_OF_ASC_NODE = 336.9318
ARG_OF_PERICENTER = 341.8319
MEAN_ANOMALY   = 18.0535

EPHEMERIS_TYPE = 0
CLASSIFICATION_TYPE = U
NORAD_CAT_ID   = 2802
ELEMENT_SET_NO = 999
REV_AT_EPOCH   = 8988
BSTAR          = .96605497E-4
MEAN_MOTION_DOT = .322E-5
MEAN_MOTION_DDOT = 0

CCSDS_OMM_VERS = 2.0
CREATION_DATE  = 
ORIGINATOR     = 

OBJECT_NAME    = SL-8 R/B
OBJECT_ID      = 1968-040B
CENTER_NAME    = EARTH
REF_FRAME      = TEME
TIME_SYSTEM    = UTC
MEAN_ELEMENT_THEORY = SGP/SGP4

EPOCH          = 2026-03-15T15:10:57.392544
MEAN_MOTION    = 15.03298864
ECCENTRICITY   = .00236309
INCLINATION    = 74.0312
RA_OF_ASC_NODE = 301.5508
ARG_OF_PERICENTER = 123.1090
MEAN_ANOMALY   = 237.2372

EPHEMERIS_TYPE = 0
CLASSIFICATION_TYPE = U
NORAD_CAT_ID   = 3230
ELEMENT_SET_NO = 999
REV_AT_EPOCH   = 9090
BSTAR          = .23583016E-3
MEAN_MOTION_DOT = .3176E-4
MEAN_MOTION_DDOT = 0

CCSDS_OMM_VERS = 2.0
CREATION_DATE  = 
ORIGINATOR     = 

OBJECT_NAME    = OAO 2
OBJECT_ID      = 1968-110A
CENTER_NAME    = EARTH
REF_FRAME      = TEME
TIME_SYSTEM    = UTC
MEAN_ELEMENT_THEORY = SGP/SGP4

EPOCH          = 2026-03-15T10:33:39.513024
MEAN_MOTION    = 14.47311401
ECCENTRICITY   = .00061888
INCLINATION    = 34.9925
RA_OF_ASC_NODE = 233.1168
ARG_OF_PERICENTER = 247.6020
MEAN_ANOMALY   = 112.4016

EPHEMERIS_TYPE = 0
CLASSIFICATION_TYPE = U
NORAD_CAT_ID   = 3597
ELEMENT_SET_NO = 999
REV_AT_EPOCH   = 1993
BSTAR          = .72546941E-4
MEAN_MOTION_DOT = .25E-5
MEAN_MOTION_DDOT = 0

CCSDS_OMM_VERS = 2.0
CREATION_DATE  = 
ORIGINATOR     = 

OBJECT_NAME    = ISIS 1
OBJECT_ID      = 1969-009A
CENTER_NAME    = EARTH
REF_FRAME      = TEME
TIME_SYSTEM    = UTC
MEAN_ELEMENT_THEORY = SGP/SGP4

EPOCH          = 2026-03-15T11:20:34.993536
MEAN_MOTION    = 11.30416047
ECCENTRICITY   = .17078655
INCLINATION    = 88.4531
RA_OF_ASC_NODE = 154.6779
ARG_OF_PERICENTER = 77.4969
MEAN_ANOMALY   = 301.1051

EPHEMERIS_TYPE = 0
CLASSIFICATION_TYPE = U
NORAD_CAT_ID   = 3669
ELEMENT_SET_NO = 999
REV_AT_EPOCH   = 34918
BSTAR          = .81354695E-4
MEAN_MOTION_DOT = .137E-5
MEAN_MOTION_DDOT = 0

CCSDS_OMM_VERS = 2.0
CREATION_DATE  = 
ORIGINATOR     = 

OBJECT_NAME    = SERT 2
OBJECT_ID      = 1970-009A
CENTER_NAME    = EARTH
REF_FRAME      = TEME
TIME_SYSTEM    = UTC
MEAN_ELEMENT_THEORY = SGP/SGP4

EPOCH          = 2026-03-15T14:41:42.423648
MEAN_MOTION    = 13.58730406
ECCENTRICITY   = .00052819
INCLINATION    = 99.2765
RA_OF_ASC_NODE = 17.3820
ARG_OF_PERICENTER = 141.2435
MEAN_ANOMALY   = 31.6307

EPHEMERIS_TYPE = 0
CLASSIFICATION_TYPE = U
NORAD_CAT_ID   = 4327
ELEMENT_SET_NO = 999
REV_AT_EPOCH   = 78069
BSTAR          = .49582819E-4
MEAN_MOTION_DOT = -.5E-7
MEAN_MOTION_DDOT = 0

CCSDS_OMM_VERS = 2.0
CREATION_DATE  = 
ORIGINATOR     = 

OBJECT_NAME    = SL-3 R/B
OBJECT_ID      = 1971-028B
CENTER_NAME    = EARTH
REF_FRAME      = TEME
TIME_SYSTEM    = UTC
MEAN_ELEMENT_THEORY = SGP/SGP4

EPOCH          = 2026-03-15T13:15:09.917568
MEAN_MOTION    = 15.61678125
ECCENTRICITY   = .00132538
INCLINATION    = 81.2359
RA_OF_ASC_NODE = 44.7850
ARG_OF_PERICENTER = 259.6493
MEAN_ANOMALY   = 100.3267

EPHEMERIS_TYPE = 0
CLASSIFICATION_TYPE = U
NORAD_CAT_ID   = 5118
ELEMENT_SET_NO = 999
REV_AT_EPOCH   = 98958
BSTAR          = .46474039E-3
MEAN_MOTION_DOT = .4035E-3
MEAN_MOTION_DDOT = 0

CCSDS_OMM_VERS = 2.0
CREATION_DATE  = 
ORIGINATOR     = 

OBJECT_NAME    = ASTEX 1
OBJECT_ID      = 1971-089A
CENTER_NAME    = EARTH
REF_FRAME      = TEME
TIME_SYSTEM    = UTC
MEAN_ELEMENT_THEORY = SGP/SGP4

EPOCH          = 2026-03-15T11:28:28.707456
MEAN_MOTION    = 14.50776340
ECCENTRICITY   = .00176744
INCLINATION    = 92.7113
RA_OF_ASC_NODE = 153.6312
ARG_OF_PERICENTER = 68.8013
MEAN_ANOMALY   = 291.5079

EPHEMERIS_TYPE = 0
CLASSIFICATION_TYPE = U
NORAD_CAT_ID   = 5560
ELEMENT_SET_NO = 999
REV_AT_EPOCH   = 86314
BSTAR          = .13182292E-3
MEAN_MOTION_DOT = .519E-5
MEAN_MOTION_DDOT = 0

CCSDS_OMM_VERS = 2.0
CREATION_DATE  = 
ORIGINATOR     = 

OBJECT_NAME    = SL-8 R/B
OBJECT_ID      = 1971-119B
CENTER_NAME    = EARTH
REF_FRAME      = TEME
TIME_SYSTEM    = UTC
MEAN_ELEMENT_THEORY = SGP/SGP4

EPOCH          = 2026-03-15T12:02:24.542880
MEAN_MOTION    = 14.38010578
ECCENTRICITY   = .05479356
INCLINATION    = 73.8878
RA_OF_ASC_NODE = 164.8547
ARG_OF_PERICENTER = 130.2699
MEAN_ANOMALY   = 234.7720

EPHEMERIS_TYPE = 0
CLASSIFICATION_TYPE = U
NORAD_CAT_ID   = 5730
ELEMENT_SET_NO = 999
REV_AT_EPOCH   = 65632
BSTAR          = .59785205E-3
MEAN_MOTION_DOT = .11473E-3
MEAN_MOTION_DDOT = 0

CCSDS_OMM_VERS = 2.0
CREATION_DATE  = 
ORIGINATOR     = 

OBJECT_NAME    = OAO 3 (COPERNICUS)
OBJECT_ID      = 1972-065A
CENTER_NAME    = EARTH
REF_FRAME      = TEME
TIME_SYSTEM    = UTC
MEAN_ELEMENT_THEORY = SGP/SGP4

EPOCH          = 2026-03-15T14:46:33.144960
MEAN_MOTION    = 14.60003047
ECCENTRICITY   = .00070002
INCLINATION    = 35.0051
RA_OF_ASC_NODE = 263.5529
ARG_OF_PERICENTER = 214.7719
MEAN_ANOMALY   = 197.7353

EPHEMERIS_TYPE = 0
CLASSIFICATION_TYPE = U
NORAD_CAT_ID   = 6153
ELEMENT_SET_NO = 999
REV_AT_EPOCH   = 84706
BSTAR          = .7160275E-4
MEAN_MOTION_DOT = .328E-5
MEAN_MOTION_DDOT = 0

