ATLAS CENTAUR 2         
1 00694U 63047A   26074.41493913  .00002099  00000+0  24557-3 0  9997
2 00694  30.3520 163.6461 0547588 130.7356 234.2120 14.12090139132430
THOR AGENA D R/B        
1 00733U 64002A   26074.52266952  .00000209  00000+0  91745-4 0  9991
2 00733  99.1222  88.1781 0032046 240.6423 119.1558 14.34023737239131
SL-3 R/B                
1 00877U 64053B   26074.64566262  .00000175  00000+0  58142-4 0  9992
2 00877  65.0775 313.7762 0079957 290.3433  68.9089 14.61372936267663
SL-8 R/B                
1 02802U 67045B   26074.66479215  .00000322  00000+0  96605-4 0  9999
2 02802  74.0137 336.9318 0064447 341.8319  18.0535 14.45628257 89882
SL-8 R/B                
1 03230U 68040B   26074.63260871  .00003176  00000+0  23583-3 0  9998
2 03230  74.0312 301.5508 0023630 123.1090 237.2372 15.03298864 90909
OAO 2                   
1 03597U 68110A   26074.44004066  .00000250  00000+0  72547-4 0  9998
2 03597  34.9925 233.1168 0006188 247.6020 112.4016 14.47311401 19939
ISIS 1                  
1 03669U 69009A   26074.47262724  .00000137  00000+0  81355-4 0  9997
2 03669  88.4531 154.6779 1707865  77.4969 301.1051 11.30416047349183
SERT 2                  
1 04327U 70009A   26074.61229657 -.00000005  00000+0  49583-4 0  9997
2 04327  99.2765  17.3820 0005281 141.2435  31.6307 13.58730406780690
SL-3 R/B                
1 05118U 71028B   26074.55219812  .00040350  00000+0  46474-3 0  9994
2 05118  81.2359  44.7850 0013253 259.6493 100.3267 15.61678125989585
ASTEX 1                 
1 05560U 71089A   26074.47811004  .00000519  00000+0  13182-3 0  9997
2 05560  92.7113 153.6312 0017674  68.8013 291.5079 14.50776340863145
SL-8 R/B                
1 05730U 71119B   26074.50167295  .00011473  00000+0  59785-3 0  9990
2 05730  73.8878 164.8547 0547935 130.2699 234.7720 14.38010578656320
OAO 3 (COPERNICUS)      
1 06153U 72065A   26074.61566140  .00000328  00000+0  71603-4 0  9996
2 06153  35.0051 263.5529 0007000 214.7719 197.7353 14.60003047847066
